IRIDIUM 57              
1 25273U 98019B   24207.70000591  .00000727  00000+0  24711-3 0  9996
2 25273  86.3950 281.9898 0002264  93.3917 266.7538 14.35298289377941
IRIDIUM 63              
1 25286U 98021B   24207.56954558  .00000780  00000+0  26272-3 0  9991
2 25286  86.3978 218.9462 0002117  92.4224 267.7215 14.35846079376960
IRIDIUM 69              
1 25319U 98026A   24208.15036819  .00000769  00000+0  23766-3 0  9992
2 25319  86.3957 232.9693 0003722  55.0713 305.0835 14.40098980376361
IRIDIUM 71              
1 25320U 98026B   24208.14204391  .00000637  00000+0  19458-3 0  9992
2 25320  86.3960 227.7266 0004448  86.8080 273.3629 14.40403845376896
IRIDIUM 73              
1 25344U 98032C   24207.93040813  .00001063  00000+0  26564-3 0  9998
2 25344  86.4453 185.2113 0002683  76.9664 283.1840 14.50653884383248
IRIDIUM 82              
1 25467U 98051A   24207.68584675  .00016908  00000+0  81239-3 0  9990
2 25467  86.3733 267.4874 0126000  79.4676 282.0729 15.11848399374308
